IRIDIUM 4 [-]           
1 24796U 97020E   23312.85799706  .00000944  00000+0  31909-3 0  9999
2 24796  86.3972  59.7480 0001982  89.2227 270.9197 14.35875688388300
IRIDIUM 914 [-]         
1 24836U 97030A   23312.85283618  .00001175  00000+0  36937-3 0  9998
2 24836  86.3932  70.0670 0002552  46.5296 313.6115 14.39689474522736
IRIDIUM 16 [-]          
1 24841U 97030F   23312.92141889  .00001147  00000+0  37633-3 0  9998
2 24841  86.4005  91.4580 0002702 142.5494 217.5892 14.37576761382746
IRIDIUM 911 [-]         
1 24842U 97030G   23312.91611992  .00001550  00000+0  42842-3 0  9991
2 24842  86.4432  90.7700 0012453 247.9041 112.0840 14.46113056390294
IRIDIUM 17 [-]          
1 24870U 97034B   23312.89011679  .00001062  00000+0  35414-3 0  9994
2 24870  86.3925 121.1417 0003493 109.1873 250.9702 14.36667992379378
IRIDIUM 920 [-]         
1 24871U 97034C   23312.91444979  .00001201  00000+0  37229-3 0  9992
2 24871  86.3939 101.7215 0010566 205.9018 154.1654 14.40389037382415
